{
    "links": {
        "self": "http://www.neowsapp.com/rest/v1/neo/3767935?api_key=iIulBulltgU6a56xZRHN4H3l9WmuAYTsLGpBGhQ2"
    },
    "id": "3767935",
    "neo_reference_id": "3767935",
    "name": "(2017 BS93)",
    "designation": "2017 BS93",
    "nasa_jpl_url": "http://ssd.jpl.nasa.gov/sbdb.cgi?sstr=3767935",
    "absolute_magnitude_h": 22.5,
    "estimated_diameter": {
        "kilometers": {
            "estimated_diameter_min": 0.0840533402,
            "estimated_diameter_max": 0.1879489824
        },
        "meters": {
            "estimated_diameter_min": 84.0533402073,
            "estimated_diameter_max": 187.9489824394
        },
        "miles": {
            "estimated_diameter_min": 0.0522283081,
            "estimated_diameter_max": 0.1167860472
        },
        "feet": {
            "estimated_diameter_min": 275.7655606856,
            "estimated_diameter_max": 616.6305395464
        }
    },
    "is_potentially_hazardous_asteroid": false,
    "close_approach_data": [
        {
            "close_approach_date": "1940-08-22",
            "close_approach_date_full": "1940-Aug-22 15:29",
            "epoch_date_close_approach": -926497860000,
            "relative_velocity": {
                "kilometers_per_second": "10.3277265471",
                "kilometers_per_hour": "37179.8155695125",
                "miles_per_hour": "23102.0915131785"
            },
            "miss_distance": {
                "astronomical": "0.1965214159",
                "lunar": "76.4468307851",
                "kilometers": "29399185.228024133",
                "miles": "18267806.6112457154"
            },
            "orbiting_body": "Earth"
        },
        {
            "close_approach_date": "2017-01-13",
            "close_approach_date_full": "2017-Jan-13 08:41",
            "epoch_date_close_approach": 1484296860000,
            "relative_velocity": {
                "kilometers_per_second": "17.1448472677",
                "kilometers_per_hour": "61721.4501638287",
                "miles_per_hour": "38351.3088531857"
            },
            "miss_distance": {
                "astronomical": "0.0851228248",
                "lunar": "33.1127788472",
                "kilometers": "12734193.278463176",
                "miles": "7912660.7882807888"
            },
            "orbiting_body": "Earth"
        },
        {
            "close_approach_date": "2188-07-31",
            "close_approach_date_full": "2188-Jul-31 00:51",
            "epoch_date_close_approach": 6897747060000,
            "relative_velocity": {
                "kilometers_per_second": "22.3686128253",
                "kilometers_per_hour": "80527.0061710894",
                "miles_per_hour": "50036.3500289194"
            },
            "miss_distance": {
                "astronomical": "0.3142850013",
                "lunar": "122.2568655057",
                "kilometers": "47016366.767427231",
                "miles": "29214615.6095525478"
            },
            "orbiting_body": "Earth"
        }
    ],
    "orbital_data": {
        "orbit_id": "3",
        "orbit_determination_date": "2017-04-06 08:20:25",
        "first_observation_date": "2017-01-27",
        "last_observation_date": "2017-02-05",
        "data_arc_in_days": 9,
        "observations_used": 29,
        "orbit_uncertainty": "9",
        "minimum_orbit_intersection": ".0189296",
        "jupiter_tisserand_invariant": "4.252",
        "epoch_osculation": "2457783.5",
        "eccentricity": ".5107933960078093",
        "semi_major_axis": "1.562675434487441",
        "inclination": "11.7731857095405",
        "ascending_node_longitude": "282.6884231126096",
        "orbital_period": "713.5125303974199",
        "perihelion_distance": ".7644711424476222",
        "perihelion_argument": "116.0529792341115",
        "aphelion_distance": "2.36087972652726",
        "perihelion_time": "2457720.935261926426",
        "mean_anomaly": "31.56679770422723",
        "mean_motion": ".5045461497354269",
        "equinox": "J2000",
        "orbit_class": {
            "orbit_class_type": "APO",
            "orbit_class_description": "Near-Earth asteroid orbits which cross the Earth’s orbit similar to that of 1862 Apollo",
            "orbit_class_range": "a (semi-major axis) > 1.0 AU; q (perihelion) < 1.017 AU"
        }
    },
    "is_sentry_object": false
}